NORAD_CAT_ID,OBJECT_NAME,OBJECT_TYPE,EPOCH,MEAN_MOTION,ECCENTRICITY,INCLINATION,RA_OF_ASC_NODE,ARG_OF_PERICENTER,MEAN_ANOMALY,BSTAR,MEAN_MOTION_DOT,MEAN_MOTION_DDOT,TLE_LINE0,TLE_LINE1,TLE_LINE2,SEMIMAJOR_AXIS,PERIOD,APOGEE,PERIGEE,DECAYED
52281.0,STARLINK-3779,PAYLOAD,2022-05-29 04:00:00,15.49886449,0.000222,53.2176,191.2142,48.3647,44.3498,-1.8587e-05,-1.507e-05,0.0,0 STARLINK-3779,1 52281U 22041W   22149.16667824 -.00001507  00000-0 -18587-4 0  9993,2 52281  53.2176 191.2142 0002220  48.3647  44.3498 15.49886449  7100,6795.195,92.91,418.568,415.551,0.0
52281.0,STARLINK-3779,PAYLOAD,2022-05-29 12:53:13,15.49911079,0.0002178,53.2152,189.4366,44.497,315.6215,-5.8025e-05,-3.747e-05,0.0,0 STARLINK-3779,1 52281U 22041W   22149.53696616 -.00003747  00000-0 -58025-4 0  9994,2 52281  53.2152 189.4366 0002178  44.4970 315.6215 15.49911079  5948,6795.123000000001,92.909,418.468,415.508,0.0
52281.0,STARLINK-3779,PAYLOAD,2022-05-29 14:00:01,15.49880134,0.0002111,53.2145,189.2167,37.8229,221.2349,0.00091565,0.00051854,0.0,0 STARLINK-3779,1 52281U 22041W   22149.58334491  .00051854  00000-0  91565-3 0  9994,2 52281  53.2145 189.2167 0002111  37.8229 221.2349 15.49880134  7171,6795.2130000000025,92.91,418.513,415.644,0.0
52281.0,STARLINK-3779,PAYLOAD,2022-05-29 22:00:00,15.49919364,0.0001852,53.2146,187.6216,40.5987,279.3979,-0.00081015,-0.00046219,0.0,0 STARLINK-3779,1 52281U 22041W   22149.91667824 -.00046219  00000-0 -81015-3 0  9990,2 52281  53.2146 187.6216 0001852  40.5987 279.3979 15.49919364  1302,6795.099,92.908,418.222,415.705,0.0
52281.0,STARLINK-3779,PAYLOAD,2022-05-30 06:00:00,15.49886791,0.0001869,53.2148,186.0291,37.9682,342.9616,-0.00054265,-0.00031131,0.0,0 STARLINK-3779,1 52281U 22041W   22150.25001157 -.00031131  00000-0 -54265-3 0  9994,2 52281  53.2148 186.0291 0001869  37.9682 342.9616 15.49886791  7274,6795.194,92.91,418.329,415.789,0.0
52281.0,STARLINK-3779,PAYLOAD,2022-05-30 14:00:01,15.49853203,0.0002061,53.2146,184.4373,33.4206,48.4095,0.00081688,0.00046134,0.0,0 STARLINK-3779,1 52281U 22041W   22150.58334491  .00046134  00000-0  81688-3 0  9996,2 52281  53.2146 184.4373 0002061  33.4206  48.4095 15.49853203  1302,6795.292,92.912,418.5580000000001,415.757,0.0
52281.0,STARLINK-3779,PAYLOAD,2022-05-30 22:00:00,15.49858382,0.000187,53.2148,182.8422,37.264,105.4694,0.00079938,0.00045138,0.0,0 STARLINK-3779,1 52281U 22041W   22150.91667824  .00045138  00000-0  79938-3 0  9990,2 52281  53.2148 182.8422 0001870  37.2640 105.4694 15.49858382  7377,6795.276999999999,92.912,418.413,415.871,0.0
52281.0,STARLINK-3779,PAYLOAD,2022-05-31 06:00:02,15.49901321,0.0002031,53.215,181.25,38.4386,165.2563,-0.00034351,-0.00019911,0.0,0 STARLINK-3779,1 52281U 22041W   22151.25002315 -.00019911  00000-0 -34351-3 0  9998,2 52281  53.2150 181.2500 0002031  38.4386 165.2563 15.49901321  1308,6795.151,92.909,418.397,415.636,0.0
52281.0,STARLINK-3779,PAYLOAD,2022-05-31 14:00:01,15.49879952,0.0002154,53.2151,179.6592,35.0098,229.5403,0.00063719,0.00035873,0.0,0 STARLINK-3779,1 52281U 22041W   22151.58334491  .00035873  00000-0  63719-3 0  9990,2 52281  53.2151 179.6592 0002154  35.0098 229.5403 15.49879952  7486,6795.214,92.91,418.543,415.615,0.0
52281.0,STARLINK-3779,PAYLOAD,2022-05-31 22:00:00,15.50084654,0.0001944,53.2162,178.0671,33.5563,291.8955,-0.012519,-0.00658881,0.0,0 STARLINK-3779,1 52281U 22041W   22151.91667824 -.00658881  00000-0 -12519-1 0  9998,2 52281  53.2162 178.0671 0001944  33.5563 291.8955 15.50084654  7534,6794.616,92.898,417.802,415.16,0.0
52281.0,STARLINK-3779,PAYLOAD,2022-06-01 06:00:00,15.49733145,0.0002194,53.2172,176.4785,25.1844,1.0875,-0.0075507,-0.00405428,0.0,0 STARLINK-3779,1 52281U 22041W   22152.25001157 -.00405428  00000-0 -75507-2 0  9991,2 52281  53.2172 176.4785 0002194  25.1844   1.0875 15.49733145  7581,6795.643,92.919,418.999,416.017,0.0
52281.0,STARLINK-3779,PAYLOAD,2022-06-01 20:00:01,15.49056814,0.0001763,53.2175,173.6947,29.2092,12.7453,-0.014105,-0.00720038,0.0,0 STARLINK-3779,1 52281U 22041W   22152.83334491 -.00720038  00000-0 -14105-1 0  9998,2 52281  53.2175 173.6947 0001763  29.2092  12.7453 15.49056814  7676,6797.621,92.96,420.684,418.288,0.0
52281.0,STARLINK-3779,PAYLOAD,2022-06-02 15:57:29,15.4835036,0.0001101,53.2147,169.7186,7.5312,352.5714,-0.0062285,-0.00321919,0.0,0 STARLINK-3779,1 52281U 22041W   22153.66492465 -.00321919  00000-0 -62285-2 0  9994,2 52281  53.2147 169.7186 0001101   7.5312 352.5714 15.48350360  7808,6799.688,93.002,422.302,420.805,0.0
52281.0,STARLINK-3779,PAYLOAD,2022-06-03 12:05:49,15.48341396,0.0003249,53.2156,165.7189,231.949,128.1227,-0.00051163,-0.00027856,0.0,0 STARLINK-3779,1 52281U 22041W   22154.50404210 -.00027856  00000-0 -51163-3 0  9996,2 52281  53.2156 165.7189 0003249 231.9490 128.1227 15.48341396  7931,6799.715,93.003,423.789,419.37,0.0
52281.0,STARLINK-3779,PAYLOAD,2022-06-03 12:06:46,15.47088676,0.0001324,53.2157,165.7248,4.4845,355.6176,-0.0069863999999999,-0.00344515,0.0,0 STARLINK-3779,1 52281U 22041W   22154.50470866 -.00344515  00000-0 -69864-2 0  9996,2 52281  53.2157 165.7248 0001324   4.4845 355.6176 15.47088676  7935,6803.385,93.078,426.151,424.349,0.0
52281.0,STARLINK-3779,PAYLOAD,2022-06-05 22:00:00,15.42809834,0.0001744,53.2174,154.3073,35.23699999999999,64.6833,-0.017504,-0.00719953,0.0,0 STARLINK-3779,1 52281U 22041W   22156.91667824 -.00719953  00000-0 -17504-1 0  9990,2 52281  53.2174 154.3073 0001744  35.2370  64.6833 15.42809834  8306,6815.958000000001,93.336,439.012,436.634,0.0
52281.0,STARLINK-3779,PAYLOAD,2022-06-06 14:00:01,15.4179092,0.0001673,53.2172,151.1609,45.2144,158.2933,-0.018147,-0.00721096,0.0,0 STARLINK-3779,1 52281U 22041W   22157.58334491 -.00721096  00000-0 -18147-1 0  9990,2 52281  53.2172 151.1609 0001673  45.2144 158.2933 15.41790920  1303,6818.9609999999975,93.398,441.966,439.685,0.0
52281.0,STARLINK-3779,PAYLOAD,2022-06-06 22:00:00,15.41279811,0.0001676999999999,53.2173,149.5871,44.014,210.37,-0.018408,-0.00719191,0.0,0 STARLINK-3779,1 52281U 22041W   22157.91667824 -.00719191  00000-0 -18408-1 0  9999,2 52281  53.2173 149.5871 0001677  44.0140 210.3700 15.41279811  1306,6820.468000000003,93.429,443.477,441.189,0.0
52281.0,STARLINK-3779,PAYLOAD,2022-06-07 06:00:00,15.40770315,0.0001924,53.2173,148.0183,33.2176,271.4275,-0.018748,-0.00720079,0.0,0 STARLINK-3779,1 52281U 22041W   22158.25001157 -.00720079  00000-0 -18748-1 0  9992,2 52281  53.2173 148.0183 0001924  33.2176 271.4275 15.40770315  8519,6821.972,93.46,445.149,442.524,0.0
52281.0,STARLINK-3779,PAYLOAD,2022-06-07 14:00:01,15.40261133,0.0001423,53.2173,146.4482,45.7138,308.5809,-0.019101,-0.00721136,0.0,0 STARLINK-3779,1 52281U 22041W   22158.58334491 -.00721136  00000-0 -19101-1 0  9997,2 52281  53.2173 146.4482 0001423  45.7138 308.5809 15.40261133  1301,6823.475,93.491,446.311,444.369,0.0
52281.0,STARLINK-3779,PAYLOAD,2022-06-07 22:00:00,15.39748826,0.0001574,53.2173,144.8782,39.0807,4.2523,-0.019311,-0.0071712,0.0,0 STARLINK-3779,1 52281U 22041W   22158.91667824 -.00717120  00000-0 -19311-1 0  9994,2 52281  53.2173 144.8782 0001574  39.0807   4.2523 15.39748826  1302,6824.988,93.522,447.92800000000005,445.779,0.0
52281.0,STARLINK-3779,PAYLOAD,2022-06-08 06:00:02,15.39241435,0.0001936,53.2173,143.313,31.9048,59.9142,-0.019765,-0.00721473,0.0,0 STARLINK-3779,1 52281U 22041W   22159.25002315 -.00721473  00000-0 -19765-1 0  9999,2 52281  53.2173 143.3130 0001936  31.9048  59.9142 15.39241435  8667,6826.488,93.553,449.675,447.032,0.0
52281.0,STARLINK-3779,PAYLOAD,2022-06-08 14:00:01,15.38729963,0.0001619,53.2173,141.7463,43.6139,95.9532,-0.020016,-0.00718601,0.0,0 STARLINK-3779,1 52281U 22041W   22159.58334491 -.00718601  00000-0 -20016-1 0  9998,2 52281  53.2173 141.7463 0001619  43.6139  95.9532 15.38729963  1300,6828.001,93.584,450.971,448.76,0.0
52281.0,STARLINK-3779,PAYLOAD,2022-06-08 22:00:01,15.38220479,0.0001811,53.2173,140.1801,41.1034,145.7265,-0.020363,-0.0071893,0.0,0 STARLINK-3779,1 52281U 22041W   22159.91668981 -.00718930  00000-0 -20363-1 0  9999,2 52281  53.2173 140.1801 0001811  41.1034 145.7265 15.38220479  1305,6829.5080000000025,93.615,452.61,450.137,0.0
52281.0,STARLINK-3779,PAYLOAD,2022-06-09 14:00:01,15.37201589,0.0001598,53.2173,137.0552,45.9499,233.3738,-0.021134,-0.00721474,0.0,0 STARLINK-3779,1 52281U 22041W   22160.58334491 -.00721474  00000-0 -21134-1 0  9994,2 52281  53.2173 137.0552 0001598  45.9499 233.3738 15.37201589  1301,6832.526,93.677,455.483,453.299,0.0
52281.0,STARLINK-3779,PAYLOAD,2022-06-09 22:00:00,15.36688773,0.0001629999999999,53.2176,135.4929,41.7256,282.9594,-0.021302,-0.00715657,0.0,0 STARLINK-3779,1 52281U 22041W   22160.91667824 -.00715657  00000-0 -21302-1 0  9993,2 52281  53.2176 135.4929 0001630  41.7256 282.9594 15.36688773  8924,6834.045999999999,93.708,457.025,454.797,0.0
52281.0,STARLINK-3779,PAYLOAD,2022-06-10 14:00:01,15.35670695,0.0001571999999999,53.2174,132.3749,39.8868,13.679,-0.022139,-0.00719366,0.0,0 STARLINK-3779,1 52281U 22041W   22161.58334491 -.00719366  00000-0 -22139-1 0  9998,2 52281  53.2174 132.3749 0001572  39.8868  13.6790 15.35670695  1305,6837.066,93.77,460.006,457.856,0.0
52281.0,STARLINK-3779,PAYLOAD,2022-06-10 22:00:00,15.35159125,0.0001774999999999,53.2176,130.8163,36.6398,60.4485,-0.022398,-0.00716183,0.0,0 STARLINK-3779,1 52281U 22041W   22161.91667824 -.00716183  00000-0 -22398-1 0  9995,2 52281  53.2176 130.8163 0001775  36.6398  60.4485 15.35159125  9071,6838.585,93.801,461.664,459.236,0.0
52281.0,STARLINK-3779,PAYLOAD,2022-06-11 22:00:00,15.33629976,0.0001923,53.2176,126.151,37.91,186.066,-0.02354,-0.00716751,0.0,0 STARLINK-3779,1 52281U 22041W   22162.91667824 -.00716751  00000-0 -23540-1 0  9997,2 52281  53.2176 126.1510 0001923  37.9100 186.0660 15.33629976  9237,6843.13,93.895,466.311,463.679,0.0
